     3.00           N                   E                   RINEX VERSION / TYPE
BRD_USR             ESA                 20190114 071807  UTCPGM / RUN BY / DATE
 GAL   3.7500E+01  1.1719E-01 -6.1035E-04  0.0000E+00       IONOSPHERIC CORR
GAUT  1.8626451492E-09-1.776356839E-15  86400 2036 GSTB   0 TIME SYSTEM CORR
GPGA -4.9476511776E-10-6.217248938E-15  86400 2036 GSTB   0 TIME SYSTEM CORR
                                                            END OF HEADER
E04 2019 01 14 05 20 00-1.996494247578E-04-7.844391802792E-12 0.000000000000E+00
     4.800000000000E+01-2.712500000000E+01 3.230848863538E-09 2.654736242226E+00
    -1.244246959686E-06 7.664423901588E-05 1.026503741741E-05 5.440615907669E+03
     1.056000000000E+05 3.725290298462E-09 1.120263717835E+00 0.000000000000E+00
     9.524890822620E-01 1.181875000000E+02 2.134698553506E+00-5.569517707054E-09
    -2.135803250493E-10 5.210000000000E+02 2.036000000000E+03 0.000000000000E+00
     3.120000000000E+00 0.000000000000E+00-8.149072527885E-09-9.080395102501E-09
     1.062850000000E+05 0.000000000000E+00 0.000000000000E+00 0.000000000000E+00
E05 2019 01 14 05 20 00 1.253919326700E-04-6.551204023708E-12 0.000000000000E+00
     4.800000000000E+01-4.987500000000E+01 3.321209770289E-09 1.605007283430E+00
    -2.337619662285E-06 1.340304734185E-04 1.079775393009E-05 5.440617120743E+03
     1.056000000000E+05 7.078051567078E-08 1.120196852238E+00-1.303851604462E-08
     9.524586959906E-01 1.036562500000E+02 1.611202245566E+00-5.657378509666E-09
    -2.475103097979E-10 5.210000000000E+02 2.036000000000E+03 0.000000000000E+00
     3.120000000000E+00 0.000000000000E+00-1.629814505577E-09-1.862645149231E-09
     1.062850000000E+05 0.000000000000E+00 0.000000000000E+00 0.000000000000E+00
E07 2019 01 14 05 20 00-1.122221583501E-04-7.105427357601E-12 0.000000000000E+00
     4.800000000000E+01-5.343750000000E+01 3.239063491424E-09 8.746258160873E-01
    -2.488493919373E-06 1.322571188211E-04 9.676441550255E-06 5.440616811752E+03
     1.056000000000E+05-7.450580596924E-08 1.120213823551E+00 6.146728992462E-08
     9.524900492509E-01 1.296875000000E+02-1.633223833757E-02-5.551302662610E-09
    -1.396486740707E-10 5.210000000000E+02 2.036000000000E+03 0.000000000000E+00
     3.120000000000E+00 0.000000000000E+00 4.656612873077E-10 2.328306436539E-10
     1.062850000000E+05 0.000000000000E+00 0.000000000000E+00 0.000000000000E+00
E11 2019 01 14 05 20 00 5.719750653952E-03 7.105427357601E-13 0.000000000000E+00
     4.800000000000E+01 1.303125000000E+01 2.885477334570E-09 1.568778386374E-01
     5.904585123062E-07 2.814675681293E-04 8.145347237587E-06 5.440605432510E+03
     1.056000000000E+05 1.303851604462E-08-9.851214069236E-01 3.352761268616E-08
     9.819657960741E-01 1.763750000000E+02-3.443062856017E-01-5.557017186357E-09
     3.060841782060E-10 5.210000000000E+02 2.036000000000E+03 0.000000000000E+00
     3.120000000000E+00 0.000000000000E+00-1.839362084866E-08-2.002343535423E-08
     1.062850000000E+05 0.000000000000E+00 0.000000000000E+00 0.000000000000E+00
E12 2019 01 14 05 20 00 5.938339454588E-03 8.435563358944E-11 0.000000000000E+00
     4.800000000000E+01 1.515625000000E+01 2.871905340671E-09 1.453756477261E+00
     7.227063179016E-07 4.052268341184E-04 7.588416337967E-06 5.440606845856E+03
     1.056000000000E+05 1.117587089539E-08-9.851368831340E-01 1.676380634308E-08
     9.819801546150E-01 1.863750000000E+02-8.375640388070E-01-5.569160549320E-09
     2.600108304947E-10 5.210000000000E+02 2.036000000000E+03 0.000000000000E+00
     3.120000000000E+00 0.000000000000E+00-1.536682248116E-08-1.583248376846E-08
     1.062850000000E+05 0.000000000000E+00 0.000000000000E+00 0.000000000000E+00
E14 2019 01 14 05 20 00 6.460203789175E-03-5.570655048359E-12 0.000000000000E+00
     4.800000000000E+01-8.965625000000E+01 4.489115561111E-09 1.612322467771E+00
    -5.131587386131E-06 1.662588317413E-01 4.252418875694E-06 5.289378511429E+03
     1.056000000000E+05 1.994892954826E-06-1.587332642205E+00-1.590698957443E-06
     8.826513495602E-01 2.193750000000E+02 1.457869783043E+00-5.709166381124E-09
    -2.264380034803E-10 5.210000000000E+02 2.036000000000E+03 0.000000000000E+00
     3.120000000000E+00 4.550000000000E+02 3.329478204250E-08 3.725290298462E-08
     1.062850000000E+05 0.000000000000E+00 0.000000000000E+00 0.000000000000E+00
E15 2019 01 14 05 20 00 9.230173891410E-04-1.094235813071E-12 0.000000000000E+00
     4.800000000000E+01-1.059375000000E+01 2.859047662240E-09-9.572785502426E-01
    -4.656612873077E-07 3.883716417477E-04 7.865950465202E-06 5.440594039917E+03
     1.056000000000E+05 7.450580596924E-09-9.904158449668E-01-8.568167686462E-08
     9.851653222615E-01 1.817187500000E+02-1.582907404253E+00-5.507015103569E-09
     2.439387324559E-10 5.210000000000E+02 2.036000000000E+03 0.000000000000E+00
     3.120000000000E+00 4.550000000000E+02 1.396983861923E-09 1.396983861923E-09
     1.062850000000E+05 0.000000000000E+00 0.000000000000E+00 0.000000000000E+00
E18 2019 01 14 05 20 00 5.607737344690E-03-2.849276370398E-11 0.000000000000E+00
     4.800000000000E+01 4.559375000000E+01 2.355455257023E-09-1.559759105816E+00
     3.358349204063E-06 1.663012180943E-01 7.223337888718E-06 5.289373462677E+03
     1.056000000000E+05 5.709007382393E-06-1.570136915008E+00 1.398846507072E-06
     8.818654260804E-01 1.970625000000E+02 1.442450468492E+00-3.076199564631E-09
     3.035840740667E-11 5.210000000000E+02 2.036000000000E+03 0.000000000000E+00
     3.120000000000E+00 4.550000000000E+02 1.396983861923E-08 1.559965312481E-08
     1.062850000000E+05 0.000000000000E+00 0.000000000000E+00 0.000000000000E+00
E19 2019 01 14 05 20 00-9.136390872300E-06 3.268496584496E-13 0.000000000000E+00
     4.800000000000E+01-3.571875000000E+01 3.151559846546E-09-3.014215346534E+00
    -1.790001988411E-06 1.371242105961E-04 9.967014193535E-06 5.440620151520E+03
     1.056000000000E+05 2.235174179077E-08 1.116961586962E+00 2.607703208923E-08
     9.582177729079E-01 1.265312500000E+02 2.381043230476E+00-5.554517082217E-09
    -1.992940156814E-10 5.210000000000E+02 2.036000000000E+03 0.000000000000E+00
     3.120000000000E+00 0.000000000000E+00-8.614733815193E-09-8.847564458847E-09
     1.062850000000E+05 0.000000000000E+00 0.000000000000E+00 0.000000000000E+00
E30 2019 01 14 05 20 00 5.190047551878E-03-3.055333763768E-11 0.000000000000E+00
     4.800000000000E+01 4.293750000000E+01 2.915121426508E-09-1.060368108062E+00
     2.071261405945E-06 3.143881913275E-04 4.550442099571E-06 5.440609661102E+03
     1.056000000000E+05 7.078051567078E-08-3.067003934967E+00 7.450580596924E-09
     9.876555379889E-01 2.530625000000E+02 6.124052141867E-01-5.606662111410E-09
    -2.821546100149E-11 5.210000000000E+02 2.036000000000E+03 0.000000000000E+00
     3.120000000000E+00 0.000000000000E+00-3.026798367500E-09-3.725290298462E-09
     1.062850000000E+05 0.000000000000E+00 0.000000000000E+00 0.000000000000E+00
E36 2019 01 14 05 20 00 7.598851807415E-04-4.490630090004E-12 0.000000000000E+00
     4.800000000000E+01 6.281250000000E+00 2.874405444810E-09 5.517249975607E-01
     3.222376108170E-07 3.352283965796E-04 8.519738912582E-06 5.440601018906E+03
     1.056000000000E+05 1.676380634308E-08-9.904147828883E-01 3.911554813385E-08
     9.852114524573E-01 1.702187500000E+02-1.519072343346E+00-5.531301829495E-09
     3.414427938915E-10 5.210000000000E+02 2.036000000000E+03 0.000000000000E+00
     3.120000000000E+00 4.550000000000E+02 9.313225746155E-10 1.164153218269E-09
     1.062850000000E+05 0.000000000000E+00 0.000000000000E+00 0.000000000000E+00
E01 2019 01 14 05 20 00-5.203658947721E-04-8.085976332950E-12 0.000000000000E+00
     4.800000000000E+01 3.253125000000E+01 2.880477126291E-09-2.209132899161E+00
     1.529231667519E-06 8.644419722259E-05 4.818663001060E-06 5.440617933273E+03
     1.056000000000E+05-1.303851604462E-08-3.070405690561E+00-2.235174179077E-08
     9.901033261663E-01 2.521250000000E+02-5.929163950849E-01-5.616305370233E-09
    -8.857511808063E-11 2.580000000000E+02 2.036000000000E+03 0.000000000000E+00
     3.120000000000E+00 0.000000000000E+00-4.656612873077E-09 0.000000000000E+00
     1.063000000000E+05 0.000000000000E+00 0.000000000000E+00 0.000000000000E+00
E03 2019 01 14 05 20 00-1.219627447426E-04-4.263256414561E-12 0.000000000000E+00
     4.800000000000E+01-5.837500000000E+01 3.274064949376E-09 1.802838520375E+00
    -2.790242433548E-06 2.606406342238E-04 1.050345599651E-05 5.440619739532E+03
     1.056000000000E+05 7.078051567078E-08 1.120214168799E+00-4.284083843231E-08
     9.524459598258E-01 1.132500000000E+02 6.258654327332E-01-5.644520831235E-09
    -3.067984936744E-10 2.580000000000E+02 2.036000000000E+03 0.000000000000E+00
     3.120000000000E+00 0.000000000000E+00-1.862645149231E-09 0.000000000000E+00
     1.063000000000E+05 0.000000000000E+00 0.000000000000E+00 0.000000000000E+00
E04 2019 01 14 05 20 00-1.996488426812E-04-7.844391802792E-12 0.000000000000E+00
     4.800000000000E+01-2.712500000000E+01 3.230848863538E-09 2.654736242226E+00
    -1.244246959686E-06 7.664423901588E-05 1.026503741741E-05 5.440615907669E+03
     1.056000000000E+05 3.725290298462E-09 1.120263717835E+00 0.000000000000E+00
     9.524890822620E-01 1.181875000000E+02 2.134698553506E+00-5.569517707054E-09
    -2.135803250493E-10 2.580000000000E+02 2.036000000000E+03 0.000000000000E+00
     3.120000000000E+00 0.000000000000E+00-8.149072527885E-09 0.000000000000E+00
     1.063000000000E+05 0.000000000000E+00 0.000000000000E+00 0.000000000000E+00
